STARLINK-1260           
1 45404U 20019AW  26068.43645685  .00003834  00000+0  14152-3 0  9995
2 45404  53.1614 130.4178 0001820  93.3089 266.8120 15.30197736329939
STARLINK-1559           
1 46077U 20055BC  26068.23360559  .00042685  00000+0  14779-2 0  9995
2 46077  53.0254  76.0659 0004229  33.9710 326.1559 15.29461733309518
